2022-058A               
1 52785U 22058A   22179.22796299  .00001507  00000+0  19483-3 0  9991
2 52785  49.9966 139.4327 0012283  24.6948 335.4554 14.86431025  3882
2022-058B               
1 52786U 22058B   22179.22599281  .00000689  00000+0  10313-3 0  9997
2 52786  50.0020 139.4315 0012177  27.4118 332.7465 14.86527885  3865
2022-058C               
1 52787U 22058C   22179.22456238  .00001558  00000+0  19962-3 0  9997
2 52787  49.9916 139.3982 0012788  27.6889 332.4713 14.86625447  3867
2022-058D               
1 52788U 22058D   22179.22197133  .00001546  00000+0  19761-3 0  9998
2 52788  50.0066 139.4178 0012988  30.3807 329.7867 14.86774612  3866
2022-058E               
1 52789U 22058E   22179.21980745  .00000789  00000+0  11346-3 0  9996
2 52789  49.9902 139.3649 0014120  30.9291 329.2470 14.86879467  3867
2022-058F               
1 52790U 22058F   22179.21514680  .00001398  00000+0  17955-3 0  9998
2 52790  50.0076 139.3768 0014242  35.7193 324.4703 14.87155392  3866
2022-058G               
1 52791U 22058G   22179.21257569  .00001605  00000+0  20159-3 0  9990
2 52791  49.9916 139.3218 0015282  36.6999 323.4971 14.87310933  3866
2022-058H               
1 52792U 22058H   22179.20896880  .00000946  00000+0  12894-3 0  9999
2 52792  49.9965 139.3100 0016231  38.1973 322.0110 14.87504613  3865
2022-058J               
1 52793U 22058J   22179.20678870  .00001485  00000+0  18697-3 0  9993
2 52793  50.0015 139.3075 0016407  40.2838 319.9313 14.87633578  3891
CZ-2C R/B               
1 52794U 22058K   22178.41071700  .00001843  00000+0  11419-3 0  9998
2 52794  50.1764 139.4233 0103905 139.8139 221.0554 15.10835764  3797
PROGRESS-MS 20          
1 52795U 22059A   22178.51914833 -.00000148  00000+0  54263-5 0  9998
2 52795  51.6433 285.4203 0004485 297.2032 167.6633 15.49715456346789
SHENZHOU 14             
1 52797U 22060A   22178.13375831  .00011688  00000+0  14133-3 0  9999
2 52797  41.4703 158.4333 0003511 335.8918 125.0416 15.60554981 66325
NILESAT 301             
1 52817U 22061A   22178.90726759 -.00000074  00000+0  00000+0 0  9999
2 52817   0.0264 325.3698 0000604 257.6147   9.3698  1.00272982   203
FALCON 9 R/B            
1 52818U 22061B   22178.31297923  .00000628  00000+0  81327-3 0  9990
2 52818  18.7110  40.0810 7695502 188.5244 139.1325  1.75871610   328
STARLINK-4091           
1 52830U 22062A   22178.91667824 -.00762589  00000+0 -40093-2 0  9999
2 52830  53.2174 353.6290 0002988  18.4068 348.6362 15.81917821  2146
STARLINK-4089           
1 52831U 22062B   22178.91667824 -.00763077  00000+0 -40179-2 0  9998
2 52831  53.2173 353.6323 0003121  18.8232 347.0577 15.81885554  2148
STARLINK-4083           
1 52832U 22062C   22178.91667824 -.00763043  00000+0 -40162-2 0  9994
2 52832  53.2173 353.6308 0002948  14.7515 351.5365 15.81895455  2132
STARLINK-4086           
1 52833U 22062D   22178.91667824 -.00763198  00000+0 -40148-2 0  9990
2 52833  53.2173 353.6307 0002969  14.9200 351.7378 15.81907330  1645
STARLINK-4108           
1 52834U 22062E   22178.91667824 -.00763114  00000+0 -40102-2 0  9999
2 52834  53.2173 353.6285 0002968  16.3519 351.0740 15.81929185  1647
STARLINK-4080           
1 52835U 22062F   22178.91667824 -.00762932  00000+0 -40072-2 0  9993
2 52835  53.2173 353.6285 0002919  16.2538 351.5554 15.81940118  1641
STARLINK-4043           
1 52836U 22062G   22178.91667824 -.00762895  00000+0 -40052-2 0  9990
2 52836  53.2173 353.6270 0002850  15.1203 353.0863 15.81950367  1644
STARLINK-4036           
1 52837U 22062H   22178.91667824 -.00763216  00000+0 -40008-2 0  9990
2 52837  53.2174 353.6253 0002834  10.7580 358.5967 15.81983680  1647
STARLINK-4092           
1 52838U 22062J   22178.91667824 -.00762833  00000+0 -40024-2 0  9993
2 52838  53.2173 353.6263 0003001  21.6456 346.9352 15.81961718  2130
STARLINK-4048           
1 52839U 22062K   22178.91667824 -.00762697  00000+0 -39937-2 0  9993
2 52839  53.2173 353.6236 0002859  12.0912 358.0246 15.82005428  2136
STARLINK-4049           
1 52840U 22062L   22178.91667824 -.00762791  00000+0 -39959-2 0  9994
2 52840  53.2173 353.6241 0003033  12.0399 357.6905 15.81994658  2136
STARLINK-4065           
1 52841U 22062M   22178.91667824 -.00762190  00000+0 -39839-2 0  9995
2 52841  53.2173 353.6215 0003238  17.2331 354.0264 15.82038076  2131
STARLINK-4046           
1 52842U 22062N   22178.91667824 -.00762638  00000+0 -39997-2 0  9998
2 52842  53.2173 353.6256 0002811  10.7555 358.2177 15.81972226  2131
STARLINK-4188           
1 52843U 22062P   22178.91667824 -.00762642  00000+0 -39827-2 0  9996
2 52843  53.2173 353.6199 0002886  13.4673 358.5203 15.82062105  2131
STARLINK-4208           
1 52844U 22062Q   22178.91667824 -.00762713  00000+0 -39915-2 0  9994
2 52844  53.2173 353.6227 0002899  14.7947 355.6889 15.82017180  2137
STARLINK-4168           
1 52845U 22062R   22178.91667824 -.00762477  00000+0 -39798-2 0  9991
2 52845  53.2173 353.6194 0002884  13.6842 358.6911 15.82072605  2139
STARLINK-4212           
1 52846U 22062S   22178.91667824 -.00762603  00000+0 -39846-2 0  9997
2 52846  53.2173 353.6207 0002889  11.2657   0.3480 15.82050759  2136
STARLINK-4206           
1 52847U 22062T   22178.91667824 -.00762404  00000+0 -39747-2 0  9997
2 52847  53.2173 353.6179 0003135  11.6145   1.5151 15.82094854  2138
STARLINK-4202           
1 52848U 22062U   22178.91667824 -.00762666  00000+0 -39891-2 0  9998
2 52848  53.2173 353.6221 0002885  15.0828 355.7716 15.82028694  2134
STARLINK-4197           
1 52849U 22062V   22178.91667824 -.00761950  00000+0 -39683-2 0  9993
2 52849  53.2173 353.6165 0003066  16.4450 357.4529 15.82116090  2139
STARLINK-4187           
1 52850U 22062W   22178.91667824 -.00762471  00000+0 -39776-2 0  9997
2 52850  53.2173 353.6184 0002894  14.0902 358.6572 15.82084049  2135
STARLINK-3809           
1 52851U 22062X   22178.91667824 -.00762272  00000+0 -39680-2 0  9991
2 52851  53.2173 353.6158 0003094  14.6824 359.5964 15.82127151  2136
STARLINK-4184           
1 52852U 22062Y   22178.91667824 -.00761416  00000+0 -39671-2 0  9991
2 52852  53.2173 353.6169 0003146  16.3934 357.1116 15.82105400  2134
STARLINK-4189           
1 52853U 22062Z   22178.91667824 -.00761639  00000+0 -39603-2 0  9994
2 52853  53.2173 353.6142 0003051  16.2014 358.8171 15.82149677  2132
STARLINK-4204           
1 52854U 22062AA  22178.91667824 -.00762568  00000+0 -39678-2 0  9999
2 52854  53.2173 353.6147 0002909  12.6364   2.0051 15.82139218  2132
STARLINK-4209           
1 52855U 22062AB  22178.91667824 -.00760947  00000+0 -39498-2 0  9999
2 52855  53.2173 353.6121 0003257  22.7922 353.3491 15.82182712  2131
STARLINK-4201           
1 52856U 22062AC  22178.91667824 -.00761685  00000+0 -39584-2 0  9996
2 52856  53.2174 353.6131 0003090  15.4003 359.9926 15.82160806  2133
STARLINK-4199           
1 52857U 22062AD  22178.91667824 -.00761681  00000+0 -39506-2 0  9997
2 52857  53.2173 353.6106 0002946  15.5389   1.3778 15.82204157  2133
STARLINK-4198           
1 52858U 22062AE  22178.91667824 -.00760177  00000+0 -39473-2 0  9990
2 52858  53.2173 353.6125 0003374  25.0426 350.7173 15.82171406  2139
STARLINK-4196           
1 52859U 22062AF  22178.91667824 -.00760570  00000+0 -39419-2 0  9998
2 52859  53.2173 353.6098 0003138  22.4178 354.8623 15.82215096  2131
STARLINK-4191           
1 52860U 22062AG  22178.91667824 -.00761860  00000+0 -39537-2 0  9994
2 52860  53.2173 353.6109 0002972  14.3434   2.2097 15.82192643  2137
STARLINK-4112           
1 52861U 22062AH  22178.91667824 -.00761615  00000+0 -39378-2 0  9996
2 52861  53.2173 353.6061 0002950  13.8179   5.3390 15.82270931  2138
STARLINK-4010           
1 52862U 22062AJ  22178.91667824 -.00762156  00000+0 -39491-2 0  9994
2 52862  53.2173 353.6087 0002939  13.0708   4.5954 15.82226661  2132
STARLINK-4270           
1 52863U 22062AK  22178.91667824 -.00761583  00000+0 -39417-2 0  9996
2 52863  53.2173 353.6076 0002938  14.6538   3.7485 15.82249112  2134
STARLINK-4267           
1 52864U 22062AL  22178.91667824 -.00761661  00000+0 -39442-2 0  9992
2 52864  53.2173 353.6079 0002993  15.7304   2.3102 15.82237432  2135
STARLINK-4274           
1 52865U 22062AM  22178.91667824 -.00761699  00000+0 -39341-2 0  9992
2 52865  53.2173 353.6047 0002941  13.3107   6.5864 15.82293528  2138
STARLINK-4272           
1 52866U 22062AN  22178.91667824 -.00760989  00000+0 -39359-2 0  9993
2 52866  53.2173 353.6065 0003169  14.8354   3.9417 15.82259762  2139
STARLINK-4126           
1 52867U 22062AP  22178.91667824 -.00761463  00000+0 -39287-2 0  9992
2 52867  53.2173 353.6032 0002985  13.0459   7.6077 15.82315004  2131
STARLINK-4261           
1 52868U 22062AQ  22178.91667824 -.00761399  00000+0 -39344-2 0  9995
2 52868  53.2173 353.6050 0003006  15.2030   4.3225 15.82282111  2137
STARLINK-4266           
1 52869U 22062AR  22178.91667824 -.00761796  00000+0 -39287-2 0  9993
2 52869  53.2173 353.6025 0002898  12.2277   8.8039 15.82326026  2134
STARLINK-4195           
1 52870U 22062AS  22178.91667824 -.00761591  00000+0 -39315-2 0  9990
2 52870  53.2173 353.6036 0002976  13.0680   7.2155 15.82303878  2134
STARLINK-4207           
1 52871U 22062AT  22178.91667824 -.00761815  00000+0 -39226-2 0  9991
2 52871  53.2173 353.6003 0002908  11.1261  11.0180 15.82359443  2138
STARLINK-4213           
1 52872U 22062AU  22178.91667824 -.00761935  00000+0 -39274-2 0  9998
2 52872  53.2173 353.6013 0002927  11.2421  10.1670 15.82336953  2135
STARLINK-4211           
1 52873U 22062AV  22178.91667824 -.00761696  00000+0 -39181-2 0  9990
2 52873  53.2173 353.5988 0002912  12.6518  10.2635 15.82380098  2133
STARLINK-4210           
1 52874U 22062AW  22178.91667824 -.00761807  00000+0 -39247-2 0  9998
2 52874  53.2173 353.6006 0002882  12.8880   8.8892 15.82348116  2139
